start=new Date('2023-03-24T00:00:00.000Z').valueOf();
sats=[{"SEMIMAJOR_AXIS":"6925.445","TLE_LINE1":"1 47565U 21009T   23082.57540705  .00032869  00000-0  22171-2 0  9990","REV_AT_EPOCH":"11783","CENTER_NAME":"EARTH","MEAN_MOTION_DOT":"0.00032869","EPHEMERIS_TYPE":"0","RCS_SIZE":"LARGE","TIME_SYSTEM":"UTC","PERIOD":"95.594","OBJECT_NAME":"STARLINK-1964","BSTAR":"0.00221710000000","DECAY_DATE":null,"CLASSIFICATION_TYPE":"U","MEAN_MOTION":"15.06368538","MEAN_ELEMENT_THEORY":"SGP4","MEAN_ANOMALY":"276.7242","COUNTRY_CODE":"US","EPOCH":"2023-03-23T13:48:35.169120","REF_FRAME":"TEME","ECCENTRICITY":"0.00015050","OBJECT_TYPE":"PAYLOAD","TLE_LINE2":"2 47565  53.0543 189.4191 0001505  83.3918 276.7242 15.06368538117830","LAUNCH_DATE":"2021-02-04","PERIAPSIS":"546.268","GP_ID":"228704816","ELEMENT_SET_NO":"999","ARG_OF_PERICENTER":"83.3918","MEAN_MOTION_DDOT":"0.0000000000000","INCLINATION":"53.0543","SITE":"AFETR","OBJECT_ID":"2021-009T","FILE":"3868494","APOAPSIS":"548.352","RA_OF_ASC_NODE":"189.4191","NORAD_CAT_ID":"47565"},{"ELEMENT_SET_NO":"999","ARG_OF_PERICENTER":"99.5291","PERIAPSIS":"546.430","GP_ID":"228705553","LAUNCH_DATE":"2021-02-04","RA_OF_ASC_NODE":"179.7453","NORAD_CAT_ID":"47566","SITE":"AFETR","FILE":"3868494","OBJECT_ID":"2021-009U","APOAPSIS":"548.190","MEAN_MOTION_DDOT":"0.0000000000000","INCLINATION":"53.0537","EPOCH":"2023-03-23T12:03:45.440064","REF_FRAME":"TEME","COUNTRY_CODE":"US","MEAN_ANOMALY":"260.5842","MEAN_ELEMENT_THEORY":"SGP4","OBJECT_TYPE":"PAYLOAD","TLE_LINE2":"2 47566  53.0537 179.7453 0001271  99.5291 260.5842 15.06368464117969","ECCENTRICITY":"0.00012710","BSTAR":"0.00201970000000","OBJECT_NAME":"STARLINK-1965","DECAY_DATE":null,"PERIOD":"95.594","TIME_SYSTEM":"UTC","MEAN_MOTION":"15.06368464","CLASSIFICATION_TYPE":"U","REV_AT_EPOCH":"11796","TLE_LINE1":"1 47566U 21009U   23082.50260926  .00029904  00000-0  20197-2 0  9990","SEMIMAJOR_AXIS":"6925.445","RCS_SIZE":"LARGE","EPHEMERIS_TYPE":"0","MEAN_MOTION_DOT":"0.00029904","CENTER_NAME":"EARTH"},{"PERIOD":"95.593","TIME_SYSTEM":"UTC","OBJECT_NAME":"STARLINK-1966","BSTAR":"0.00155360000000","DECAY_DATE":null,"CLASSIFICATION_TYPE":"U","MEAN_MOTION":"15.06381414","TLE_LINE1":"1 47567U 21009V   23082.67215053  .00022923  00000-0  15536-2 0  9995","SEMIMAJOR_AXIS":"6925.406","REV_AT_EPOCH":"11742","CENTER_NAME":"EARTH","RCS_SIZE":"LARGE","EPHEMERIS_TYPE":"0","MEAN_MOTION_DOT":"0.00022923","LAUNCH_DATE":"2021-02-04","ELEMENT_SET_NO":"999","ARG_OF_PERICENTER":"119.5242","PERIAPSIS":"546.477","GP_ID":"228738395","SITE":"AFETR","OBJECT_ID":"2021-009V","FILE":"3868816","APOAPSIS":"548.064","MEAN_MOTION_DDOT":"0.0000000000000","INCLINATION":"53.0544","RA_OF_ASC_NODE":"218.9873","NORAD_CAT_ID":"47567","COUNTRY_CODE":"US","MEAN_ANOMALY":"240.5861","MEAN_ELEMENT_THEORY":"SGP4","EPOCH":"2023-03-23T16:07:53.805792","REF_FRAME":"TEME","ECCENTRICITY":"0.00011460","OBJECT_TYPE":"PAYLOAD","TLE_LINE2":"2 47567  53.0544 218.9873 0001146 119.5242 240.5861 15.06381414117420"},{"CLASSIFICATION_TYPE":"U","MEAN_MOTION":"15.06372577","PERIOD":"95.594","TIME_SYSTEM":"UTC","DECAY_DATE":null,"OBJECT_NAME":"STARLINK-1967","BSTAR":"0.00164180000000","CENTER_NAME":"EARTH","RCS_SIZE":"LARGE","EPHEMERIS_TYPE":"0","MEAN_MOTION_DOT":"0.00024239","SEMIMAJOR_AXIS":"6925.433","TLE_LINE1":"1 47568U 21009W   23082.69795163  .00024239  00000-0  16418-2 0  9995","REV_AT_EPOCH":"11743","FILE":"3868816","OBJECT_ID":"2021-009W","APOAPSIS":"548.070","SITE":"AFETR","INCLINATION":"53.0520","MEAN_MOTION_DDOT":"0.0000000000000","RA_OF_ASC_NODE":"218.8672","NORAD_CAT_ID":"47568","LAUNCH_DATE":"2021-02-04","ARG_OF_PERICENTER":"94.9574","ELEMENT_SET_NO":"999","GP_ID":"228738624","PERIAPSIS":"546.525","ECCENTRICITY":"0.00011150","TLE_LINE2":"2 47568  53.0520 218.8672 0001115  94.9574 265.1542 15.06372577117431","OBJECT_TYPE":"PAYLOAD","COUNTRY_CODE":"US","MEAN_ELEMENT_THEORY":"SGP4","MEAN_ANOMALY":"265.1542","REF_FRAME":"TEME","EPOCH":"2023-03-23T16:45:03.020832"},{"EPOCH":"2023-03-23T13:23:22.560000","REF_FRAME":"TEME","COUNTRY_CODE":"US","MEAN_ANOMALY":"250.5482","MEAN_ELEMENT_THEORY":"SGP4","OBJECT_TYPE":"PAYLOAD","TLE_LINE2":"2 47570  53.0530 179.4958 0001279 109.5645 250.5482 15.06371478117976","ECCENTRICITY":"0.00012790","ELEMENT_SET_NO":"999","ARG_OF_PERICENTER":"109.5645","PERIAPSIS":"546.415","GP_ID":"228705316","LAUNCH_DATE":"2021-02-04","NORAD_CAT_ID":"47570","RA_OF_ASC_NODE":"179.4958","SITE":"AFETR","APOAPSIS":"548.187","FILE":"3868494","OBJECT_ID":"2021-009Y","MEAN_MOTION_DDOT":"0.0000000000000","INCLINATION":"53.0530","REV_AT_EPOCH":"11797","SEMIMAJOR_AXIS":"6925.436","TLE_LINE1":"1 47570U 21009Y   23082.55790000  .00032323  00000-0  21806-2 0  9998","RCS_SIZE":"LARGE","MEAN_MOTION_DOT":"0.00032323","EPHEMERIS_TYPE":"0","CENTER_NAME":"EARTH","OBJECT_NAME":"STARLINK-1969","BSTAR":"0.00218060000000","DECAY_DATE":null,"PERIOD":"95.594","TIME_SYSTEM":"UTC","MEAN_MOTION":"15.06371478","CLASSIFICATION_TYPE":"U"},{"RA_OF_ASC_NODE":"189.4516","NORAD_CAT_ID":"47571","SITE":"AFETR","OBJECT_ID":"2021-009Z","FILE":"3868672","APOAPSIS":"548.388","MEAN_MOTION_DDOT":"0.0000000000000","INCLINATION":"53.0528","ELEMENT_SET_NO":"999","ARG_OF_PERICENTER":"59.2334","PERIAPSIS":"546.257","GP_ID":"228714379","LAUNCH_DATE":"2021-02-04","OBJECT_TYPE":"PAYLOAD","TLE_LINE2":"2 47571  53.0528 189.4516 0001539  59.2334 300.8806 15.06364495118432","ECCENTRICITY":"0.00015390","EPOCH":"2023-03-23T13:37:57.962208","REF_FRAME":"TEME","COUNTRY_CODE":"US","MEAN_ELEMENT_THEORY":"SGP4","MEAN_ANOMALY":"300.8806","MEAN_MOTION":"15.06364495","CLASSIFICATION_TYPE":"U","OBJECT_NAME":"STARLINK-1970","BSTAR":"0.00126790000000","DECAY_DATE":null,"PERIOD":"95.594","TIME_SYSTEM":"UTC","RCS_SIZE":"LARGE","EPHEMERIS_TYPE":"0","MEAN_MOTION_DOT":"0.00018636","CENTER_NAME":"EARTH","REV_AT_EPOCH":"11843","TLE_LINE1":"1 47571U 21009Z   23082.56803197  .00018636  00000-0  12679-2 0  9991","SEMIMAJOR_AXIS":"6925.457"},{"LAUNCH_DATE":"2021-02-04","PERIAPSIS":"546.204","GP_ID":"228738895","ELEMENT_SET_NO":"999","ARG_OF_PERICENTER":"104.4188","MEAN_MOTION_DDOT":"0.0000000000000","INCLINATION":"53.0532","SITE":"AFETR","OBJECT_ID":"2021-009AA","FILE":"3868816","APOAPSIS":"548.234","RA_OF_ASC_NODE":"189.2349","NORAD_CAT_ID":"47572","MEAN_ANOMALY":"255.6964","MEAN_ELEMENT_THEORY":"SGP4","COUNTRY_CODE":"US","EPOCH":"2023-03-23T14:46:58.013472","REF_FRAME":"TEME","ECCENTRICITY":"0.00014650","OBJECT_TYPE":"PAYLOAD","TLE_LINE2":"2 47572  53.0532 189.2349 0001465 104.4188 255.6964 15.06398238117846","TIME_SYSTEM":"UTC","PERIOD":"95.592","BSTAR":"0.00151840000000","OBJECT_NAME":"STARLINK-1971","DECAY_DATE":null,"CLASSIFICATION_TYPE":"U","MEAN_MOTION":"15.06398238","TLE_LINE1":"1 47572U 21009AA  23082.61594923  .00022406  00000-0  15184-2 0  9996","SEMIMAJOR_AXIS":"6925.354","REV_AT_EPOCH":"11784","CENTER_NAME":"EARTH","EPHEMERIS_TYPE":"0","MEAN_MOTION_DOT":"0.00022406","RCS_SIZE":"LARGE"},{"MEAN_MOTION":"15.06371996","CLASSIFICATION_TYPE":"U","BSTAR":"0.00156900000000","OBJECT_NAME":"STARLINK-1975","DECAY_DATE":null,"TIME_SYSTEM":"UTC","PERIOD":"95.594","EPHEMERIS_TYPE":"0","MEAN_MOTION_DOT":"0.00023148","RCS_SIZE":"LARGE","CENTER_NAME":"EARTH","REV_AT_EPOCH":"11782","SEMIMAJOR_AXIS":"6925.434","TLE_LINE1":"1 47573U 21009AB  23082.52749721  .00023148  00000-0  15690-2 0  9991","RA_OF_ASC_NODE":"189.6277","NORAD_CAT_ID":"47573","MEAN_MOTION_DDOT":"0.0000000000000","INCLINATION":"53.0552","SITE":"AFETR","APOAPSIS":"548.304","FILE":"3868494","OBJECT_ID":"2021-009AB","PERIAPSIS":"546.295","GP_ID":"228704566","ELEMENT_SET_NO":"999","ARG_OF_PERICENTER":"90.5061","LAUNCH_DATE":"2021-02-04","OBJECT_TYPE":"PAYLOAD","TLE_LINE2":"2 47573  53.0552 189.6277 0001450  90.5061 269.6094 15.06371996117821","ECCENTRICITY":"0.00014500","EPOCH":"2023-03-23T12:39:35.758944","REF_FRAME":"TEME","MEAN_ANOMALY":"269.6094","MEAN_ELEMENT_THEORY":"SGP4","COUNTRY_CODE":"US"},{"ECCENTRICITY":"0.00015110","TLE_LINE2":"2 47574  53.0553 218.9712 0001511  91.1454 268.9708 15.06398980117426","OBJECT_TYPE":"PAYLOAD","MEAN_ANOMALY":"268.9708","MEAN_ELEMENT_THEORY":"SGP4","COUNTRY_CODE":"US","REF_FRAME":"TEME","EPOCH":"2023-03-23T16:13:11.230752","INCLINATION":"53.0553","MEAN_MOTION_DDOT":"0.0000000000000","OBJECT_ID":"2021-009AC","FILE":"3868816","APOAPSIS":"548.263","SITE":"AFETR","RA_OF_ASC_NODE":"218.9712","NORAD_CAT_ID":"47574","LAUNCH_DATE":"2021-02-04","GP_ID":"228737394","PERIAPSIS":"546.170","ARG_OF_PERICENTER":"91.1454","ELEMENT_SET_NO":"999","CENTER_NAME":"EARTH","EPHEMERIS_TYPE":"0","MEAN_MOTION_DOT":"0.00009261","RCS_SIZE":"LARGE","SEMIMAJOR_AXIS":"6925.352","TLE_LINE1":"1 47574U 21009AC  23082.67582443  .00009261  00000-0  63981-3 0  9991","REV_AT_EPOCH":"11742","CLASSIFICATION_TYPE":"U","MEAN_MOTION":"15.06398980","TIME_SYSTEM":"UTC","PERIOD":"95.592","DECAY_DATE":null,"OBJECT_NAME":"STARLINK-1976","BSTAR":"0.00063981000000"},{"CLASSIFICATION_TYPE":"U","MEAN_MOTION":"15.06385860","TIME_SYSTEM":"UTC","PERIOD":"95.593","BSTAR":"0.00153740000000","OBJECT_NAME":"STARLINK-1977","DECAY_DATE":null,"CENTER_NAME":"EARTH","EPHEMERIS_TYPE":"0","MEAN_MOTION_DOT":"0.00022683","RCS_SIZE":"LARGE","TLE_LINE1":"1 47575U 21009AD  23082.59843393  .00022683  00000-0  15374-2 0  9992","SEMIMAJOR_AXIS":"6925.392","REV_AT_EPOCH":"11741","MEAN_MOTION_DDOT":"0.0000000000000","INCLINATION":"53.0537","SITE":"AFETR","FILE":"3868494","APOAPSIS":"548.339","OBJECT_ID":"2021-009AD","RA_OF_ASC_NODE":"219.3147","NORAD_CAT_ID":"47575","LAUNCH_DATE":"2021-02-04","PERIAPSIS":"546.175","GP_ID":"228705554","ELEMENT_SET_NO":"999","ARG_OF_PERICENTER":"109.4408","ECCENTRICITY":"0.00015620","OBJECT_TYPE":"PAYLOAD","TLE_LINE2":"2 47575  53.0537 219.3147 0001562 109.4408 250.6750 15.06385860117411","MEAN_ELEMENT_THEORY":"SGP4","MEAN_ANOMALY":"250.6750","COUNTRY_CODE":"US","EPOCH":"2023-03-23T14:21:44.691552","REF_FRAME":"TEME"}];
